[
  {
    "OBJECT_NAME": "STARLINK-6187",
    "OBJECT_ID": "23065AV",
    "EPOCH": "2025-11-10T19:32:27.553056",
    "MEAN_MOTION": 15.02531777,
    "ECCENTRICITY": 0.0001241,
    "INCLINATION": 43.0033,
    "RA_OF_ASC_NODE": 149.2199,
    "ARG_OF_PERICENTER": 273.22,
    "MEAN_ANOMALY": 86.85,
    "EPHEMERIS_TYPE": 0,
    "CLASSIFICATION_TYPE": "U",
    "NORAD_CAT_ID": 56546,
    "ELEMENT_SET_NO": 999,
    "REV_AT_EPOCH": 13859,
    "BSTAR": 0.00014659,
    "MEAN_MOTION_DOT": 1.777e-05,
    "MEAN_MOTION_DDOT": 0.0,
    "TLE_LINE1": "1 56546U 23065AV  25314.81420779  .00001777  00000+0  14659-3 0  9994",
    "TLE_LINE2": "2 56546  43.0033 149.2199 0001241 273.2200  86.8500 15.02531777138591",
    "COMMENT": "Grouped by shell and plane from TLE"
  },
  {
    "OBJECT_NAME": "STARLINK-6291",
    "OBJECT_ID": "23065AW",
    "EPOCH": "2025-11-11T05:43:23.746656",
    "MEAN_MOTION": 15.02538334,
    "ECCENTRICITY": 0.0001005,
    "INCLINATION": 43.0029,
    "RA_OF_ASC_NODE": 146.3869,
    "ARG_OF_PERICENTER": 273.5463,
    "MEAN_ANOMALY": 86.5264,
    "EPHEMERIS_TYPE": 0,
    "CLASSIFICATION_TYPE": "U",
    "NORAD_CAT_ID": 56547,
    "ELEMENT_SET_NO": 999,
    "REV_AT_EPOCH": 13866,
    "BSTAR": 0.00016483,
    "MEAN_MOTION_DOT": 2.024e-05,
    "MEAN_MOTION_DDOT": 0.0,
    "TLE_LINE1": "1 56547U 23065AW  25315.23846929  .00002024  00000+0  16483-3 0  9994",
    "TLE_LINE2": "2 56547  43.0029 146.3869 0001005 273.5463  86.5264 15.02538334138669",
    "COMMENT": "Grouped by shell and plane from TLE"
  },
  {
    "OBJECT_NAME": "STARLINK-6244",
    "OBJECT_ID": "23065AX",
    "EPOCH": "2025-11-10T19:26:02.003424",
    "MEAN_MOTION": 15.02539452,
    "ECCENTRICITY": 0.0001508,
    "INCLINATION": 43.0044,
    "RA_OF_ASC_NODE": 149.185,
    "ARG_OF_PERICENTER": 272.2263,
    "MEAN_ANOMALY": 87.8406,
    "EPHEMERIS_TYPE": 0,
    "CLASSIFICATION_TYPE": "U",
    "NORAD_CAT_ID": 56548,
    "ELEMENT_SET_NO": 999,
    "REV_AT_EPOCH": 13859,
    "BSTAR": 9.759200000000001e-05,
    "MEAN_MOTION_DOT": 1.115e-05,
    "MEAN_MOTION_DDOT": 0.0,
    "TLE_LINE1": "1 56548U 23065AX  25314.80974541  .00001115  00000+0  97592-4 0  9990",
    "TLE_LINE2": "2 56548  43.0044 149.1850 0001508 272.2263  87.8406 15.02539452138596",
    "COMMENT": "Grouped by shell and plane from TLE"
  },
  {
    "OBJECT_NAME": "STARLINK-6263",
    "OBJECT_ID": "23065AY",
    "EPOCH": "2025-11-11T06:13:45.186528",
    "MEAN_MOTION": 15.02541418,
    "ECCENTRICITY": 0.0001075,
    "INCLINATION": 43.0019,
    "RA_OF_ASC_NODE": 146.5394,
    "ARG_OF_PERICENTER": 271.0551,
    "MEAN_ANOMALY": 89.0168,
    "EPHEMERIS_TYPE": 0,
    "CLASSIFICATION_TYPE": "U",
    "NORAD_CAT_ID": 56549,
    "ELEMENT_SET_NO": 999,
    "REV_AT_EPOCH": 13866,
    "BSTAR": 8.2811e-05,
    "MEAN_MOTION_DOT": 9.15e-06,
    "MEAN_MOTION_DDOT": 0.0,
    "TLE_LINE1": "1 56549U 23065AY  25315.25955077  .00000915  00000+0  82811-4 0  9999",
    "TLE_LINE2": "2 56549  43.0019 146.5394 0001075 271.0551  89.0168 15.02541418138661",
    "COMMENT": "Grouped by shell and plane from TLE"
  },
  {
    "OBJECT_NAME": "STARLINK-6255",
    "OBJECT_ID": "23065AZ",
    "EPOCH": "2025-11-11T06:26:32.955072",
    "MEAN_MOTION": 15.02536777,
    "ECCENTRICITY": 0.0001086,
    "INCLINATION": 43.0019,
    "RA_OF_ASC_NODE": 146.6072,
    "ARG_OF_PERICENTER": 261.499,
    "MEAN_ANOMALY": 98.573,
    "EPHEMERIS_TYPE": 0,
    "CLASSIFICATION_TYPE": "U",
    "NORAD_CAT_ID": 56550,
    "ELEMENT_SET_NO": 999,
    "REV_AT_EPOCH": 13866,
    "BSTAR": 3.5436000000000004e-05,
    "MEAN_MOTION_DOT": 2.75e-06,
    "MEAN_MOTION_DDOT": 0.0,
    "TLE_LINE1": "1 56550U 23065AZ  25315.26843698  .00000275  00000+0  35436-4 0  9997",
    "TLE_LINE2": "2 56550  43.0019 146.6072 0001086 261.4990  98.5730 15.02536777138661",
    "COMMENT": "Grouped by shell and plane from TLE"
  },
  {
    "OBJECT_NAME": "STARLINK-6199",
    "OBJECT_ID": "23065BA",
    "EPOCH": "2025-11-11T06:07:21.932544",
    "MEAN_MOTION": 15.02540219,
    "ECCENTRICITY": 0.0001234,
    "INCLINATION": 43.0025,
    "RA_OF_ASC_NODE": 146.5053,
    "ARG_OF_PERICENTER": 270.3205,
    "MEAN_ANOMALY": 89.7496,
    "EPHEMERIS_TYPE": 0,
    "CLASSIFICATION_TYPE": "U",
    "NORAD_CAT_ID": 56551,
    "ELEMENT_SET_NO": 999,
    "REV_AT_EPOCH": 13866,
    "BSTAR": 0.00010102,
    "MEAN_MOTION_DOT": 1.161e-05,
    "MEAN_MOTION_DDOT": 0.0,
    "TLE_LINE1": "1 56551U 23065BA  25315.25511496  .00001161  00000+0  10102-3 0  9992",
    "TLE_LINE2": "2 56551  43.0025 146.5053 0001234 270.3205  89.7496 15.02540219138667",
    "COMMENT": "Grouped by shell and plane from TLE"
  },
  {
    "OBJECT_NAME": "STARLINK-5802",
    "OBJECT_ID": "23065BB",
    "EPOCH": "2025-11-11T06:16:57.171648",
    "MEAN_MOTION": 15.02539281,
    "ECCENTRICITY": 0.0001172,
    "INCLINATION": 43.0027,
    "RA_OF_ASC_NODE": 146.5564,
    "ARG_OF_PERICENTER": 263.7272,
    "MEAN_ANOMALY": 96.3437,
    "EPHEMERIS_TYPE": 0,
    "CLASSIFICATION_TYPE": "U",
    "NORAD_CAT_ID": 56552,
    "ELEMENT_SET_NO": 999,
    "REV_AT_EPOCH": 13866,
    "BSTAR": 9.3008e-05,
    "MEAN_MOTION_DOT": 1.053e-05,
    "MEAN_MOTION_DDOT": 0.0,
    "TLE_LINE1": "1 56552U 23065BB  25315.26177282  .00001053  00000+0  93008-4 0  9992",
    "TLE_LINE2": "2 56552  43.0027 146.5564 0001172 263.7272  96.3437 15.02539281138664",
    "COMMENT": "Grouped by shell and plane from TLE"
  },
  {
    "OBJECT_NAME": "STARLINK-6074",
    "OBJECT_ID": "23065BC",
    "EPOCH": "2025-11-11T06:02:34.341504",
    "MEAN_MOTION": 15.02550515,
    "ECCENTRICITY": 0.0001592,
    "INCLINATION": 43.0009,
    "RA_OF_ASC_NODE": 146.4785,
    "ARG_OF_PERICENTER": 253.0856,
    "MEAN_ANOMALY": 106.9812,
    "EPHEMERIS_TYPE": 0,
    "CLASSIFICATION_TYPE": "U",
    "NORAD_CAT_ID": 56553,
    "ELEMENT_SET_NO": 999,
    "REV_AT_EPOCH": 13866,
    "BSTAR": 0.00012262000000000002,
    "MEAN_MOTION_DOT": 1.454e-05,
    "MEAN_MOTION_DDOT": 0.0,
    "TLE_LINE1": "1 56553U 23065BC  25315.25178636  .00001454  00000+0  12262-3 0  9993",
    "TLE_LINE2": "2 56553  43.0009 146.4785 0001592 253.0856 106.9812 15.02550515138663",
    "COMMENT": "Grouped by shell and plane from TLE"
  },
  {
    "OBJECT_NAME": "STARLINK-6295",
    "OBJECT_ID": "23065BD",
    "EPOCH": "2025-11-10T20:34:34.639968",
    "MEAN_MOTION": 15.02547143,
    "ECCENTRICITY": 0.0001248,
    "INCLINATION": 43.0041,
    "RA_OF_ASC_NODE": 148.6829,
    "ARG_OF_PERICENTER": 261.3551,
    "MEAN_ANOMALY": 98.715,
    "EPHEMERIS_TYPE": 0,
    "CLASSIFICATION_TYPE": "U",
    "NORAD_CAT_ID": 56554,
    "ELEMENT_SET_NO": 999,
    "REV_AT_EPOCH": 13860,
    "BSTAR": 0.000145,
    "MEAN_MOTION_DOT": 1.756e-05,
    "MEAN_MOTION_DDOT": 0.0,
    "TLE_LINE1": "1 56554U 23065BD  25314.85734537  .00001756  00000+0  14500-3 0  9999",
    "TLE_LINE2": "2 56554  43.0041 148.6829 0001248 261.3551  98.7150 15.02547143138605",
    "COMMENT": "Grouped by shell and plane from TLE"
  },
  {
    "OBJECT_NAME": "STARLINK-6252",
    "OBJECT_ID": "23065BE",
    "EPOCH": "2025-11-11T05:52:58.933920",
    "MEAN_MOTION": 15.02534983,
    "ECCENTRICITY": 0.0001018,
    "INCLINATION": 43.0022,
    "RA_OF_ASC_NODE": 146.4306,
    "ARG_OF_PERICENTER": 262.6509,
    "MEAN_ANOMALY": 97.4218,
    "EPHEMERIS_TYPE": 0,
    "CLASSIFICATION_TYPE": "U",
    "NORAD_CAT_ID": 56555,
    "ELEMENT_SET_NO": 999,
    "REV_AT_EPOCH": 13866,
    "BSTAR": 5.7862e-05,
    "MEAN_MOTION_DOT": 5.78e-06,
    "MEAN_MOTION_DDOT": 0.0,
    "TLE_LINE1": "1 56555U 23065BE  25315.24512655  .00000578  00000+0  57862-4 0  9999",
    "TLE_LINE2": "2 56555  43.0022 146.4306 0001018 262.6509  97.4218 15.02534983138668",
    "COMMENT": "Grouped by shell and plane from TLE"
  },
  {
    "OBJECT_NAME": "STARLINK-5302",
    "OBJECT_ID": "23065BF",
    "EPOCH": "2025-11-11T05:57:47.378592",
    "MEAN_MOTION": 15.02527864,
    "ECCENTRICITY": 0.0001526,
    "INCLINATION": 43.004,
    "RA_OF_ASC_NODE": 146.4562,
    "ARG_OF_PERICENTER": 273.6237,
    "MEAN_ANOMALY": 86.4431,
    "EPHEMERIS_TYPE": 0,
    "CLASSIFICATION_TYPE": "U",
    "NORAD_CAT_ID": 56556,
    "ELEMENT_SET_NO": 999,
    "REV_AT_EPOCH": 13866,
    "BSTAR": 0.0,
    "MEAN_MOTION_DOT": -9.58e-06,
    "MEAN_MOTION_DDOT": 0.0,
    "TLE_LINE1": "1 56556U 23065BF  25315.24846503 -.00000958  00000+0 -55870-4 0  9993",
    "TLE_LINE2": "2 56556  43.0040 146.4562 0001526 273.6237  86.4431 15.02527864138662",
    "COMMENT": "Grouped by shell and plane from TLE"
  },
  {
    "OBJECT_NAME": "STARLINK-6265",
    "OBJECT_ID": "23065BG",
    "EPOCH": "2025-11-11T05:48:11.071584",
    "MEAN_MOTION": 15.02536479,
    "ECCENTRICITY": 0.0001215,
    "INCLINATION": 43.0029,
    "RA_OF_ASC_NODE": 146.4026,
    "ARG_OF_PERICENTER": 264.6897,
    "MEAN_ANOMALY": 95.3807,
    "EPHEMERIS_TYPE": 0,
    "CLASSIFICATION_TYPE": "U",
    "NORAD_CAT_ID": 56557,
    "ELEMENT_SET_NO": 999,
    "REV_AT_EPOCH": 13866,
    "BSTAR": 0.00010443,
    "MEAN_MOTION_DOT": 1.207e-05,
    "MEAN_MOTION_DDOT": 0.0,
    "TLE_LINE1": "1 56557U 23065BG  25315.24179481  .00001207  00000+0  10443-3 0  9990",
    "TLE_LINE2": "2 56557  43.0029 146.4026 0001215 264.6897  95.3807 15.02536479138660",
    "COMMENT": "Grouped by shell and plane from TLE"
  },
  {
    "OBJECT_NAME": "STARLINK-6286",
    "OBJECT_ID": "23065BH",
    "EPOCH": "2025-11-10T19:30:50.512032",
    "MEAN_MOTION": 15.02511012,
    "ECCENTRICITY": 9.42e-05,
    "INCLINATION": 42.9987,
    "RA_OF_ASC_NODE": 149.1924,
    "ARG_OF_PERICENTER": 248.6707,
    "MEAN_ANOMALY": 111.4035,
    "EPHEMERIS_TYPE": 0,
    "CLASSIFICATION_TYPE": "U",
    "NORAD_CAT_ID": 56558,
    "ELEMENT_SET_NO": 999,
    "REV_AT_EPOCH": 13859,
    "BSTAR": 0.00046374,
    "MEAN_MOTION_DOT": 6.062e-05,
    "MEAN_MOTION_DDOT": 0.0,
    "TLE_LINE1": "1 56558U 23065BH  25314.81308463  .00006062  00000+0  46374-3 0  9993",
    "TLE_LINE2": "2 56558  42.9987 149.1924 0000942 248.6707 111.4035 15.02511012138598",
    "COMMENT": "Grouped by shell and plane from TLE"
  }
]